[{"OBJECT_NAME":"STARLINK-34085","OBJECT_ID":"2025-102Q","EPOCH":"2026-03-09T12:22:57.883008","MEAN_MOTION":14.98271093,"ECCENTRICITY":0.00030814,"INCLINATION":70.0007,"RA_OF_ASC_NODE":114.9898,"ARG_OF_PERICENTER":264.0355,"MEAN_ANOMALY":96.0453,"EPHEMERIS_TYPE":0,"CLASSIFICATION_TYPE":"U","NORAD_CAT_ID":64036,"ELEMENT_SET_NO":999,"REV_AT_EPOCH":4592,"BSTAR":0.0056196571,"MEAN_MOTION_DOT":0.00067507,"MEAN_MOTION_DDOT":0},{"OBJECT_NAME":"NIGERIASAT-1","OBJECT_ID":"2003-042C","EPOCH":"2026-03-09T23:18:28.284480","MEAN_MOTION":14.90021828,"ECCENTRICITY":0.00412391,"INCLINATION":98.0062,"RA_OF_ASC_NODE":259.4679,"ARG_OF_PERICENTER":255.6174,"MEAN_ANOMALY":104.0464,"EPHEMERIS_TYPE":0,"CLASSIFICATION_TYPE":"U","NORAD_CAT_ID":27941,"ELEMENT_SET_NO":999,"REV_AT_EPOCH":20905,"BSTAR":0.0001905973,"MEAN_MOTION_DOT":1.807e-5,"MEAN_MOTION_DDOT":0}]
